<!DOCTYPE html PUBLIC "-//W3C//DTD XHTML 1.0 Strict//EN" "http://www.w3.org/TR/xhtml1/DTD/xhtml1-strict.dtd">
<html xmlns="http://www.w3.org/1999/xhtml">
<head>
<meta http-equiv="Content-Type" content="text/html; charset=iso-8859-1"/>
<title>404 - File Not Found.</title>
<style type="text/css">
<!--
body{margin:0;font-size:.7em;font-family:Verdana, Arial, Helvetica, sans-serif;background:#EEEEEE;}
fieldset{padding:0 15px 10px 15px;}
h1{font-size:2.4em;margin:0;color:#FFF;}
h2{font-size:1.7em;margin:0;color:#CC0000;}
h3{font-size:1.2em;margin:10px 0 0 0;color:#000000;}
#header{width:96%;margin:0 0 0 0;padding:6px 2% 6px 2%;font-family:"trebuchet MS", Verdana, sans-serif;color:#FFF;
background-color:#555555;}
#content{margin:0 0 0 2%;position:relative;}
.content-container{background:#FFF;width:96%;margin-top:8px;padding:10px;position:relative;}
-->
</style>
</head>
<body>
<div id="header"><h1>Server Error</h1></div>
<div id="content">
 <div class="content-container"><fieldset>
  <h2>404 - File Not Found.</h2>
  <h3>File not found for celestrak.org/NORAD/elements/active.txt.</h3>
  <h3>Please contact <a href="mailto:ts.kelso@celestrak.org">ts.kelso@celestrak.org</a> if you have other questions.</h3>
 </fieldset></div>
</div>
</body>
</html>
AT&T T-16               
1 44333U 19034A   24030.18253377 -.00000103  00000+0  00000+0 0  9992
2 44333   0.0199  87.9179 0000719  74.3990 291.4521  1.00267089 16912
EUTELSAT 7C             
1 44334U 19034B   24030.13034013  .00000060  00000+0  00000+0 0  9993
2 44334   0.0723 196.7609 0003251 100.8216 245.1802  1.00271513 17414
BEIDOU-3 IGSO-2         
1 44337U 19035A   24029.27549287 -.00000118  00000+0  00000+0 0  9999
2 44337  55.1690 166.4966 0031484 201.5074 338.3091  1.00284904 16941
COSMOS 2539             
1 44457U 19048A   24030.13129737  .00000093  00000+0  00000+0 0  9998
2 44457   0.0219 117.9999 0000309 219.8178 210.3002  1.00270996 16516
EDRS-C                  
1 44475U 19049A   24029.55698717  .00000164  00000+0  00000+0 0  9991
2 44475   0.0774 254.7852 0000427  15.5011  89.6835  1.00270267 16486
INTELSAT 39 (IS-39)     
1 44476U 19049B   24030.14121797  .00000046  00000+0  00000+0 0  9997
2 44476   0.0205  88.0083 0001470  54.2777  99.3701  1.00267924 16417
AMOS-17                 
1 44479U 19050A   24030.13234166  .00000121  00000+0  00000+0 0  9990
2 44479   0.0196  79.7750 0001871 250.1269 223.5938  1.00273784 16464
AEHF-5 (USA 292)        
1 44481U 19051A   24030.13965156  .00000099  00000+0  00000+0 0  9998
2 44481   3.0127 306.1192 0050942 359.6986 287.8178  1.00270316 16541
EUTELSAT 5 WEST B       
1 44624U 19067A   24030.02757719 -.00000031  00000+0  00000+0 0  9993
2 44624   0.1089 305.9124 0003150   5.2582 182.4897  1.00273317 15723
MEV-1                   
1 44625U 19067B   24029.47888749 -.00000193  00000+0  00000+0 0  9998
2 44625   0.0549 263.9504 0000818  56.3940 312.7653  1.00270724 14267
TJS-4                   
1 44637U 19070A   24029.84077193 -.00000158  00000+0  00000+0 0  9990
2 44637   0.0249 158.0707 0002483 203.5880 153.0582  1.00268567 15838
BEIDOU-3 IGSO-3         
1 44709U 19073A   24029.12314396 -.00000165  00000+0  00000+0 0  9991
2 44709  56.2857 290.2071 0034831 181.6612 178.4218  1.00292303 15731
TIBA-1                  
1 44800U 19080A   24030.13599661  .00000167  00000+0  00000+0 0  9995
2 44800   0.0528   9.1245 0001827 312.1817 251.9987  1.00270792 15369
INMARSAT GX5            
1 44801U 19080B   24030.13112333  .00000086  00000+0  00000+0 0  9993
2 44801   0.0363  13.1175 0002230 298.8100 235.1138  1.00273384 15371
JCSAT-18 (KACIFIC 1)    
1 44868U 19091A   24029.80091887 -.00000190  00000+0  00000+0 0  9997
2 44868   0.0019 253.5367 0000406  41.4682 271.8462  1.00271485 15305
ELEKTRO-L 3             
1 44903U 19095A   24030.14408972 -.00000085  00000+0  00000+0 0  9990
2 44903   0.0568 277.0938 0001143  37.0252 302.6751  1.00272430 14979
SHIJIAN-20 (SJ-20)      
1 44910U 19097A   24029.89702333 -.00000044  00000+0  00000+0 0  9993
2 44910   2.6805  85.5617 0000595 235.2595 195.4846  1.00562278 14983
TJS-5                   
1 44978U 20002A   24029.89077086 -.00000332  00000+0  00000+0 0  9995
2 44978   0.2292  80.4231 0004877 160.2536 316.1237  1.00272204 14989
GSAT-30                 
1 45026U 20005A   24030.04424427 -.00000153  00000+0  00000+0 0  9998
2 45026   0.0159 255.7515 0000821 346.7959 345.1840  1.00269354 14817
EUTELSAT KONNECT        
1 45027U 20005B   24029.87549649  .00000060  00000+0  00000+0 0  9998
2 45027   0.0576  90.3724 0000445 112.2614 248.3383  1.00272305 15617
JCSAT-17                
1 45245U 20013A   24029.79812271 -.00000303  00000+0  00000+0 0  9995
2 45245   5.6733 348.8087 0004493 324.3137 238.7173  1.00271099 14518
GEO-KOMPSAT-2B          
1 45246U 20013B   24029.92965955 -.00000333  00000+0  00000+0 0  9992
2 45246   0.0185 221.5891 0002392  87.7939 282.2192  1.00267194 14566
BEIDOU-3 G2             
1 45344U 20017A   24029.89146920 -.00000130  00000+0  00000+0 0  9999
2 45344   2.1611  23.6512 0002978 266.7422 239.1601  1.00270958 14545
AEHF-6 (USA 298)        
1 45465U 20022B   24029.79978169 -.00000285  00000+0  00000+0 0  9997
2 45465   4.5536 299.0311 0048807   2.9559 252.2332  1.00273060 14295
BEIDOU-3 G3             
1 45807U 20040A   24030.07925782 -.00000342  00000+0  00000+0 0  9997
2 45807   0.5997  18.1135 0009412 294.2759 315.3628  1.00279136 13369
APSTAR 6D               
1 45863U 20045A   24030.01233740 -.00000306  00000+0  00000+0 0  9994
2 45863   0.0260  86.7239 0001114 253.2768 287.1422  1.00272600 13133
KOREASAT 116            
1 45920U 20048A   24029.90327295 -.00000351  00000+0  00000+0 0  9996
2 45920   0.0153  70.5761 0001129 235.9556 263.4943  1.00270208 12920
EXPRESS 103             
1 45985U 20053A   24029.86368750 -.00000269  00000+0  00000+0 0  9997
2 45985   0.0132  81.7954 0000455 152.8212 301.4156  1.00268132 12936
EXPRESS 80              
1 45986U 20053B   24029.42186511 -.00000126  00000+0  00000+0 0  9995
2 45986   0.0100  54.7430 0001527 351.3294 313.9401  1.00270355 12917
BSAT-4B                 
1 46112U 20056A   24030.00755115 -.00000339  00000+0  00000+0 0  9994
2 46112   0.0322 171.3846 0000460 327.6257 102.2615  1.00274194 12687
MEV-2                   
1 46113U 20056B   24029.25605267 -.00000002  00000+0  00000+0 0  9999
2 46113   0.0173 266.5893 0000629  79.8578 232.7549  1.00270555 71823
GALAXY 30 (G-30)        
1 46114U 20056C   24029.54242406  .00000047  00000+0  00000+0 0  9992
2 46114   0.0183  75.2022 0002114 234.9749 248.3601  1.00271071 12572
GAOFEN-13 01            
1 46610U 20071A   24030.00911755 -.00000351  00000+0  00000+0 0  9992
2 46610   0.2571  85.6215 0011995 277.5721 246.5460  1.00272796 12180
TIANTONG-1 2            
1 46916U 20082A   24029.81785514 -.00000344  00000+0  00000+0 0  9994
2 46916   2.6884 293.1453 0002269  17.3152 237.3932  1.00278665 11939
LUCAS (JDRS-1)          
1 47202U 20089A   24030.04424427 -.00000224  00000+0  00000+0 0  9997
2 47202   0.0144  98.3794 0003302 212.6917 284.4029  1.00269705 11687
SXM-7                   
1 47240U 20096A   24030.19077656 -.00000192  00000+0  00000+0 0  9995
2 47240   0.0171  22.7611 0002134 157.9572 291.6266  1.00264531 11627
CMS-01                  
1 47256U 20099A   24030.04424427 -.00000153  00000+0  00000+0 0  9998
2 47256   0.0056 265.4813 0008171  10.7264 311.4954  1.00272532 11475
TURKSAT 5A              
1 47306U 21001A   24030.13512639  .00000166  00000+0  00000+0 0  9994
2 47306   0.0224  91.1810 0000174 290.9739 186.2504  1.00271597 11270
TIANTONG-1 3            
1 47321U 21003A   24030.14513399 -.00000140  00000+0  00000+0 0  9991
2 47321   3.1585 310.5364 0004988 355.4923 316.6110  1.00270934 11256
TJS-6                   
1 47613U 21010A   24030.09283336  .00000056  00000+0  00000+0 0  9997
2 47613   0.0286  46.1367 0001187 295.0772 359.5882  1.00276720 11091
SBIRS GEO-5 (USA 315)   
1 48618U 21042A   24029.56016669  .00000130  00000+0  00000+0 0  9994
2 48618   6.3692 325.5030 0002641 336.8536  48.4889  1.00272637 10044
FENGYUN 4B              
1 48808U 21047A   24029.92965955 -.00000312  00000+0  00000+0 0  9994
2 48808   0.0900  74.7993 0003367 357.2457 164.3499  1.00270997  9864
SXM-8                   
1 48838U 21049A   24029.46748751 -.00000204  00000+0  00000+0 0  9991
2 48838   0.0077 113.2294 0005327 207.7779 250.3107  1.00347629  9880
TIANLIAN 1-05           
1 49011U 21063A   24030.13225463  .00000120  00000+0  00000+0 0  9993
2 49011   0.6611 279.2968 0003144  13.2995 260.6529  1.00275508  9350
STAR ONE D2             
1 49055U 21069A   24030.20851435 -.00000253  00000+0  00000+0 0  9997
2 49055   0.0075  81.4171 0001236 193.7993 218.7765  1.00270599  9190
EUTELSAT QUANTUM        
1 49056U 21069B   24029.91368649  .00000137  00000+0  00000+0 0  9994
2 49056   0.0114  13.3500 0002790 298.6990 193.2058  1.00273045  9217
CHINASAT 2E (ZX 2E)     
1 49062U 21071A   24029.50795980 -.00000281  00000+0  00000+0 0  9992
2 49062   0.0588 111.0023 0000882 284.1843  13.9451  1.00270433  9327
TJS-7                   
1 49115U 21077A   24029.60785512 -.00000113  00000+0  00000+0 0  9992
2 49115   0.0633 293.5910 0001026 326.9269 347.0654  1.00269772   855
CHINASAT 9B             
1 49125U 21080A   24029.86368750 -.00000302  00000+0  00000+0 0  9996
2 49125   0.0354  93.2987 0002064 194.5599 253.0444  1.00269614  8938
SHIJIAN-21 (SJ-21)      
1 49330U 21094A   24029.85674288 -.00000325  00000+0  00000+0 0  9999
2 49330   9.5492  46.2492 0078773  28.8494 103.1604  1.00383431  8549
SES-17                  
1 49332U 21095A   24029.54258810 -.00000262  00000+0  00000+0 0  9997
2 49332   0.0148  67.9746 0001096 238.3847 310.1389  1.00269728  9128
